[
    {
        "Altitude(m)": 617710.6903952749,
        "Argument of Periapsis(deg)": 0.0,
        "Eccentricity": 0.0,
        "Inclination(deg)": 60.0,
        "Latitude(deg)": -41.10279748990671,
        "Longitude(deg)": -135.03341138762886,
        "Mean Anomaly(deg)": -49.09089999999994,
        "RAAN(deg)": 355.0,
        "Satellite Name": "Test1 1581",
        "Satellite Number": 1581,
        "Semi-Major Axis(m)": 6980739.136638005,
        "Time(s)": 0
    },
    {
        "Altitude(m)": 617517.9889182135,
        "Argument of Periapsis(deg)": 0.00010418945913296404,
        "Eccentricity": 0.0,
        "Inclination(deg)": 60.0,
        "Latitude(deg)": -40.63700486716681,
        "Longitude(deg)": -134.53661608935423,
        "Mean Anomaly(deg)": -48.470793854538094,
        "RAAN(deg)": 354.99957995086027,
        "Satellite Name": "Test1 1581",
        "Satellite Number": 1581,
        "Semi-Major Axis(m)": 6980739.136638005,
        "Time(s)": 10
    }
]